{
    "links": {
        "self": "http://www.neowsapp.com/rest/v1/neo/3766079?api_key=iIulBulltgU6a56xZRHN4H3l9WmuAYTsLGpBGhQ2"
    },
    "id": "3766079",
    "neo_reference_id": "3766079",
    "name": "(2016 WR55)",
    "designation": "2016 WR55",
    "nasa_jpl_url": "http://ssd.jpl.nasa.gov/sbdb.cgi?sstr=3766079",
    "absolute_magnitude_h": 28.341,
    "estimated_diameter": {
        "kilometers": {
            "estimated_diameter_min": 0.0057063049,
            "estimated_diameter_max": 0.0127596858
        },
        "meters": {
            "estimated_diameter_min": 5.7063049445,
            "estimated_diameter_max": 12.7596857563
        },
        "miles": {
            "estimated_diameter_min": 0.0035457324,
            "estimated_diameter_max": 0.0079284987
        },
        "feet": {
            "estimated_diameter_min": 18.7214735142,
            "estimated_diameter_max": 41.8624874167
        }
    },
    "is_potentially_hazardous_asteroid": false,
    "close_approach_data": [
        {
            "close_approach_date": "2014-11-04",
            "close_approach_date_full": "2014-Nov-04 19:41",
            "epoch_date_close_approach": 1415130060000,
            "relative_velocity": {
                "kilometers_per_second": "25.7344616746",
                "kilometers_per_hour": "92644.062028407",
                "miles_per_hour": "57565.4173198177"
            },
            "miss_distance": {
                "astronomical": "0.3910098186",
                "lunar": "152.1028194354",
                "kilometers": "58494236.011646382",
                "miles": "36346632.8418767916"
            },
            "orbiting_body": "Earth"
        },
        {
            "close_approach_date": "2016-11-26",
            "close_approach_date_full": "2016-Nov-26 17:46",
            "epoch_date_close_approach": 1480182360000,
            "relative_velocity": {
                "kilometers_per_second": "14.1808669365",
                "kilometers_per_hour": "51051.1209713273",
                "miles_per_hour": "31721.1812502117"
            },
            "miss_distance": {
                "astronomical": "0.0028919877",
                "lunar": "1.1249832153",
                "kilometers": "432635.199986199",
                "miles": "268827.0475955862"
            },
            "orbiting_body": "Earth"
        },
        {
            "close_approach_date": "2016-11-27",
            "close_approach_date_full": "2016-Nov-27 01:25",
            "epoch_date_close_approach": 1480209900000,
            "relative_velocity": {
                "kilometers_per_second": "13.9013505671",
                "kilometers_per_hour": "50044.8620416853",
                "miles_per_hour": "31095.9310836238"
            },
            "miss_distance": {
                "astronomical": "0.0025463065",
                "lunar": "0.9905132285",
                "kilometers": "380922.028767155",
                "miles": "236693.973030539"
            },
            "orbiting_body": "Moon"
        }
    ],
    "orbital_data": {
        "orbit_id": "2",
        "orbit_determination_date": "2017-04-06 08:21:43",
        "first_observation_date": "2016-11-25",
        "last_observation_date": "2016-11-25",
        "data_arc_in_days": null,
        "observations_used": 16,
        "orbit_uncertainty": "8",
        "minimum_orbit_intersection": ".00285609",
        "jupiter_tisserand_invariant": "4.150",
        "epoch_osculation": "2457717.5",
        "eccentricity": ".5338044005385013",
        "semi_major_axis": "1.62114105872967",
        "inclination": "5.035048250839093",
        "ascending_node_longitude": "66.58528868892827",
        "orbital_period": "753.9275869387292",
        "perihelion_distance": ".7557688276861273",
        "perihelion_argument": "68.93980875494393",
        "aphelion_distance": "2.486513289773214",
        "perihelion_time": "2457765.366979139528",
        "mean_anomaly": "337.1435443021791",
        "mean_motion": ".4774994392521901",
        "equinox": "J2000",
        "orbit_class": {
            "orbit_class_type": "APO",
            "orbit_class_description": "Near-Earth asteroid orbits which cross the Earth’s orbit similar to that of 1862 Apollo",
            "orbit_class_range": "a (semi-major axis) > 1.0 AU; q (perihelion) < 1.017 AU"
        }
    },
    "is_sentry_object": false
}